{
    "links": {
        "self": "http://www.neowsapp.com/rest/v1/neo/3608324?api_key=iIulBulltgU6a56xZRHN4H3l9WmuAYTsLGpBGhQ2"
    },
    "id": "3608324",
    "neo_reference_id": "3608324",
    "name": "(2012 QH49)",
    "designation": "2012 QH49",
    "nasa_jpl_url": "http://ssd.jpl.nasa.gov/sbdb.cgi?sstr=3608324",
    "absolute_magnitude_h": 20.8,
    "estimated_diameter": {
        "kilometers": {
            "estimated_diameter_min": 0.1838886721,
            "estimated_diameter_max": 0.411187571
        },
        "meters": {
            "estimated_diameter_min": 183.8886720703,
            "estimated_diameter_max": 411.1875710413
        },
        "miles": {
            "estimated_diameter_min": 0.1142630881,
            "estimated_diameter_max": 0.2555000322
        },
        "feet": {
            "estimated_diameter_min": 603.309310875,
            "estimated_diameter_max": 1349.040630575
        }
    },
    "is_potentially_hazardous_asteroid": false,
    "close_approach_data": [
        {
            "close_approach_date": "2003-09-12",
            "close_approach_date_full": "2003-Sep-12 16:40",
            "epoch_date_close_approach": 1063384800000,
            "relative_velocity": {
                "kilometers_per_second": "26.3421281398",
                "kilometers_per_hour": "94831.6613033894",
                "miles_per_hour": "58924.7064359866"
            },
            "miss_distance": {
                "astronomical": "0.382468227",
                "lunar": "148.780140303",
                "kilometers": "57216432.10187649",
                "miles": "35552642.310175962"
            },
            "orbiting_body": "Earth"
        },
        {
            "close_approach_date": "2012-08-24",
            "close_approach_date_full": "2012-Aug-24 17:39",
            "epoch_date_close_approach": 1345829940000,
            "relative_velocity": {
                "kilometers_per_second": "21.9268296465",
                "kilometers_per_hour": "78936.5867275786",
                "miles_per_hour": "49048.1252363668"
            },
            "miss_distance": {
                "astronomical": "0.1192420851",
                "lunar": "46.3851711039",
                "kilometers": "17838361.945318737",
                "miles": "11084244.1295910906"
            },
            "orbiting_body": "Earth"
        },
        {
            "close_approach_date": "2015-05-05",
            "close_approach_date_full": "2015-May-05 03:09",
            "epoch_date_close_approach": 1430795340000,
            "relative_velocity": {
                "kilometers_per_second": "8.8819191249",
                "kilometers_per_hour": "31974.9088497593",
                "miles_per_hour": "19867.9648905629"
            },
            "miss_distance": {
                "astronomical": "1.3447244529",
                "lunar": "523.0978121781",
                "kilometers": "201167913.890755323",
                "miles": "124999945.3672285374"
            },
            "orbiting_body": "Juptr"
        }
    ],
    "orbital_data": {
        "orbit_id": "10",
        "orbit_determination_date": "2017-05-25 06:19:35",
        "first_observation_date": "2012-08-02",
        "last_observation_date": "2012-09-17",
        "data_arc_in_days": 46,
        "observations_used": 58,
        "orbit_uncertainty": "7",
        "minimum_orbit_intersection": ".0954856",
        "jupiter_tisserand_invariant": "2.831",
        "epoch_osculation": "2459000.5",
        "eccentricity": ".5992422138138166",
        "semi_major_axis": "2.702651925742152",
        "inclination": "38.29037284371056",
        "ascending_node_longitude": "155.5042710746041",
        "orbital_period": "1622.86951290365",
        "perihelion_distance": "1.08310880259225",
        "perihelion_argument": "160.3534236679467",
        "aphelion_distance": "4.322195048892055",
        "perihelion_time": "2459404.802805065729",
        "mean_anomaly": "270.3137937669154",
        "mean_motion": ".2218292950465779",
        "equinox": "J2000",
        "orbit_class": {
            "orbit_class_type": "AMO",
            "orbit_class_description": "Near-Earth asteroid orbits similar to that of 1221 Amor",
            "orbit_class_range": "1.017 AU < q (perihelion) < 1.3 AU"
        }
    },
    "is_sentry_object": false
}